              M50 Cartesian                         J2K Cartesian  
    -----------------------------------       --------------------------------
     X    =       -2234469.64                 X    =         -749739.72
     Y    =       21833974.25  feet           Y    =         6646995.31  meter
     Z    =       -3845905.00                 Z    =        -1175706.47
     XDOT =     -15968.875888                 XDOT =       -4901.608976
     YDOT =       1766.311301  feet/sec       YDOT =         483.749740  meter/sec
     ZDOT =      19342.179474                 ZDOT =        5871.769395
 
              TDR Cartesian                         TDR Cartesian  
    -----------------------------------       --------------------------------
     X    =        2561151.31                 X    =          780638.92
     Y    =       21795170.20  feet           Y    =         6643167.88  meter
     Z    =       -3862296.11                 Z    =        -1177227.85
     XDOT =     -13746.755213                 XDOT =       -4190.010989
     YDOT =       5017.450165  feet/sec       YDOT =        1529.318810  meter/sec
     ZDOT =      19234.486166                 ZDOT =        5862.671383
  
  
    The mean element set is posted at the UTC for which position is
    just north of the next ascending node relative to the above
    vector time
 
 
    TWO LINE MEAN ELEMENT SET
  
    ISS
    1 25544U 98067A   19147.35992713  .00016717  00000-0  10270-3 0  9200
    2 25544  51.6389 104.6666 0005198 283.9260  76.1313 15.51212237 12010
  
  
    Satellite: ISS
    Catalog Number: 25544
    Epoch time:      19147.35992713   =   yrday.fracday
    Element set:     920
    Inclination:       51.6389  deg
    RA of node:       104.6666  deg
    Eccentricity:     .0005198     
    Arg of perigee:   283.9260  deg
    Mean anomaly:      76.1313  deg
    Mean motion:   15.51212237  rev/day
    Decay rate:    1.67170E-04  rev/day^2
    Epoch rev:            1201
    Checksum:              304
 
 
    Coasting Arc #22 (Orbit 1216)
    ---------------------------------------
 
    Vector Time (GMT): 2019/148/08:35:00.000
    Vector Time (MET): N/A
    Weight (LBS)     : 965081.7
 
              M50 Cartesian                         M50 Keplerian  
    -----------------------------------       --------------------------------
     X    =         694168.63                 A    =         6797844.08  meter
     Y    =       -6743397.57  meter          E    =           .0008079
     Z    =         438794.62                 I    =           52.03711
     XDOT =       4738.968754                 Wp   =          142.64506
     YDOT =         92.695314  meter/sec      RA   =           98.77224  deg
     ZDOT =      -6020.777493                 TA   =           32.65553
                                              MA   =           32.60560
                                              Ha   =            224.218  n.mi
                                              Hp   =            221.174
 
              M50 Cartesian                         J2K Cartesian  
    -----------------------------------       --------------------------------
     X    =        2277456.12                 X    =          767392.20
     Y    =      -22124007.77  feet           Y    =        -6735225.50  meter
     Z    =        1439614.90                 Z    =          442344.00
     XDOT =      15547.797750                 XDOT =        4766.825753
     YDOT =        304.118483  feet/sec       YDOT =         145.845991  meter/sec
     ZDOT =     -19753.206999                 ZDOT =       -5997.689562
 
              TDR Cartesian                         TDR Cartesian  
    -----------------------------------       --------------------------------
     X    =       -2945741.27                 X    =         -897861.94
     Y    =      -22043879.42  feet           Y    =        -6718974.45  meter
     Z    =        1456367.41                 Z    =          443900.79
     XDOT =      13712.075914                 XDOT =        4179.440738
     YDOT =      -3141.539261  feet/sec       YDOT =        -957.541167  meter/sec
     ZDOT =     -19648.467995                 ZDOT =       -5988.853045
  
  
    The mean element set is posted at the UTC for which position is
    just north of the next ascending node relative to the above
    vector time
 
 
    TWO LINE MEAN ELEMENT SET
  
    ISS
    1 25544U 98067A   19148.39072528  .00016717  00000-0  10270-3 0  9219
    2 25544  51.6383  99.5501 0005250 290.9866  69.0724 15.51174960 12177
  
  
    Satellite: ISS
    Catalog Number: 25544
    Epoch time:      19148.39072528   =   yrday.fracday
    Element set:     921
    Inclination:       51.6383  deg
    RA of node:        99.5501  deg
    Eccentricity:     .0005250     
    Arg of perigee:   290.9866  deg
    Mean anomaly:      69.0724  deg
    Mean motion:   15.51174960  rev/day
    Decay rate:    1.67170E-04  rev/day^2
    Epoch rev:            1217
    Checksum:              320
 
             </PRE>
           </TD>
        </TR>
    </TABLE>
    
    <table align="center" border="0" width="600" cellpadding="0" cellspacing="0">
      <tr>
        <td align="center" valign="top"><hr size="1" width="600" noshade="noshade" />
        <font face="Arial,helvetica" size="-2">Curator: <a href="/cgi-bin/comment.cgi?jsc-hsfwebma@mail.nasa.gov">Kim 
          Dismukes</a> | Responsible NASA Official: <a href="/cgi-bin/comment.cgi?jsc-hsfwebma@mail.nasa.gov">Amiko Kauderer</a> | Updated: 06/08/2009<br />
        <a href="http://www.nasa.gov/about/highlights/HP_Privacy.html">Privacy Policy and Important Notices</a></font></td>
      </tr>
    </table>
    </body>
    </html>
